start=new Date('2022-01-26T00:00:00.000Z').valueOf();
sats=[{"MEAN_MOTION":"15.62300172","RCS_SIZE":"LARGE","FILE":"3283711","GP_ID":"194645305","ELEMENT_SET_NO":"999","PERIAPSIS":"378.720","SITE":"AFWTR","ARG_OF_PERICENTER":"276.0739","TIME_SYSTEM":"UTC","PERIOD":"92.172","TLE_LINE2":"2 49157  69.9998 110.8471 0003398 276.0739 249.5313 15.62300172  3701","OBJECT_ID":"2021-082AD","MEAN_MOTION_DDOT":"0.0000000000000","MEAN_ANOMALY":"249.5313","LAUNCH_DATE":"2021-09-14","TLE_LINE1":"1 49157U 21082AD  22025.91667824 -.00662095  00000-0 -80927-2 0  9991","MEAN_ELEMENT_THEORY":"SGP4","REF_FRAME":"TEME","MEAN_MOTION_DOT":"-0.00662095","OBJECT_TYPE":"PAYLOAD","EPOCH":"2022-01-25T22:00:00.999936","REV_AT_EPOCH":"370","CENTER_NAME":"EARTH","OBJECT_NAME":"STARLINK-3051","BSTAR":"-0.00809270000000","EPHEMERIS_TYPE":"0","INCLINATION":"69.9998","CLASSIFICATION_TYPE":"U","SEMIMAJOR_AXIS":"6759.152","NORAD_CAT_ID":"49157","APOAPSIS":"383.313","ECCENTRICITY":"0.00033980","DECAY_DATE":null,"RA_OF_ASC_NODE":"110.8471","COUNTRY_CODE":"US"},{"MEAN_MOTION_DDOT":"0.0000000000000","MEAN_ANOMALY":"263.4918","OBJECT_ID":"2021-082AE","PERIOD":"92.168","TLE_LINE2":"2 49158  69.9998 110.8387 0003346 271.8483 263.4918 15.62364915  3701","SITE":"AFWTR","ARG_OF_PERICENTER":"271.8483","TIME_SYSTEM":"UTC","GP_ID":"194645557","ELEMENT_SET_NO":"999","PERIAPSIS":"378.568","FILE":"3283711","MEAN_MOTION":"15.62364915","RCS_SIZE":"LARGE","COUNTRY_CODE":"US","DECAY_DATE":null,"RA_OF_ASC_NODE":"110.8387","NORAD_CAT_ID":"49158","APOAPSIS":"383.091","ECCENTRICITY":"0.00033460","OBJECT_NAME":"STARLINK-3083","BSTAR":"-0.00807570000000","INCLINATION":"69.9998","EPHEMERIS_TYPE":"0","CLASSIFICATION_TYPE":"U","SEMIMAJOR_AXIS":"6758.965","CENTER_NAME":"EARTH","MEAN_ELEMENT_THEORY":"SGP4","TLE_LINE1":"1 49158U 21082AE  22025.91667824 -.00662343  00000-0 -80757-2 0  9999","REF_FRAME":"TEME","MEAN_MOTION_DOT":"-0.00662343","OBJECT_TYPE":"PAYLOAD","EPOCH":"2022-01-25T22:00:00.999936","REV_AT_EPOCH":"370","LAUNCH_DATE":"2021-09-14"},{"CENTER_NAME":"EARTH","OBJECT_TYPE":"PAYLOAD","EPOCH":"2022-01-25T22:00:00.999936","MEAN_MOTION_DOT":"-0.00093226","REV_AT_EPOCH":"359","MEAN_ELEMENT_THEORY":"SGP4","TLE_LINE1":"1 49159U 21082AF  22025.91667824 -.00093226  00000-0 -79012-2 0  9990","REF_FRAME":"TEME","LAUNCH_DATE":"2021-09-14","COUNTRY_CODE":"US","RA_OF_ASC_NODE":"126.0080","DECAY_DATE":null,"NORAD_CAT_ID":"49159","APOAPSIS":"574.667","ECCENTRICITY":"0.00039220","BSTAR":"-0.00790120000000","INCLINATION":"69.9977","CLASSIFICATION_TYPE":"U","EPHEMERIS_TYPE":"0","SEMIMAJOR_AXIS":"6950.076","OBJECT_NAME":"STARLINK-3056","ELEMENT_SET_NO":"999","PERIAPSIS":"569.215","GP_ID":"194646307","FILE":"3283711","RCS_SIZE":"LARGE","MEAN_MOTION":"14.98367752","MEAN_ANOMALY":"52.9499","MEAN_MOTION_DDOT":"0.0000000000000","OBJECT_ID":"2021-082AF","TLE_LINE2":"2 49159  69.9977 126.0080 0003922 289.3137  52.9499 14.98367752  3590","PERIOD":"96.105","ARG_OF_PERICENTER":"289.3137","TIME_SYSTEM":"UTC","SITE":"AFWTR"},{"GP_ID":"194644556","PERIAPSIS":"569.511","ELEMENT_SET_NO":"999","FILE":"3283711","MEAN_MOTION":"14.98348703","RCS_SIZE":"LARGE","MEAN_MOTION_DDOT":"0.0000000000000","MEAN_ANOMALY":"107.9368","OBJECT_ID":"2021-082AG","PERIOD":"96.106","TLE_LINE2":"2 49160  69.9985 126.0084 0003582 285.7189 107.9368 14.98348703  3595","SITE":"AFWTR","TIME_SYSTEM":"UTC","ARG_OF_PERICENTER":"285.7189","CENTER_NAME":"EARTH","REF_FRAME":"TEME","TLE_LINE1":"1 49160U 21082AG  22025.91667824 -.00050303  00000-0 -42361-2 0  9998","MEAN_ELEMENT_THEORY":"SGP4","OBJECT_TYPE":"PAYLOAD","MEAN_MOTION_DOT":"-0.00050303","EPOCH":"2022-01-25T22:00:00.999936","REV_AT_EPOCH":"359","LAUNCH_DATE":"2021-09-14","COUNTRY_CODE":"US","DECAY_DATE":null,"RA_OF_ASC_NODE":"126.0084","APOAPSIS":"574.490","ECCENTRICITY":"0.00035820","NORAD_CAT_ID":"49160","OBJECT_NAME":"STARLINK-3095","SEMIMAJOR_AXIS":"6950.135","BSTAR":"-0.00423610000000","CLASSIFICATION_TYPE":"U","INCLINATION":"69.9985","EPHEMERIS_TYPE":"0"},{"PERIAPSIS":"569.193","ELEMENT_SET_NO":"999","GP_ID":"194644806","RCS_SIZE":"LARGE","MEAN_MOTION":"14.98350466","FILE":"3283711","OBJECT_ID":"2021-082AH","MEAN_ANOMALY":"88.0473","MEAN_MOTION_DDOT":"0.0000000000000","ARG_OF_PERICENTER":"279.9179","TIME_SYSTEM":"UTC","SITE":"AFWTR","TLE_LINE2":"2 49161  69.9983 126.0093 0004031 279.9179  88.0473 14.98350466  3605","PERIOD":"96.106","CENTER_NAME":"EARTH","LAUNCH_DATE":"2021-09-14","EPOCH":"2022-01-25T22:00:00.999936","OBJECT_TYPE":"PAYLOAD","MEAN_MOTION_DOT":"-0.00050799","REV_AT_EPOCH":"360","REF_FRAME":"TEME","TLE_LINE1":"1 49161U 21082AH  22025.91667824 -.00050799  00000-0 -42778-2 0  9990","MEAN_ELEMENT_THEORY":"SGP4","RA_OF_ASC_NODE":"126.0093","DECAY_DATE":null,"COUNTRY_CODE":"US","SEMIMAJOR_AXIS":"6950.130","INCLINATION":"69.9983","BSTAR":"-0.00427780000000","EPHEMERIS_TYPE":"0","CLASSIFICATION_TYPE":"U","OBJECT_NAME":"STARLINK-3080","ECCENTRICITY":"0.00040310","APOAPSIS":"574.796","NORAD_CAT_ID":"49161"},{"OBJECT_ID":"2021-082AJ","MEAN_MOTION_DDOT":"0.0000000000000","MEAN_ANOMALY":"133.6860","SITE":"AFWTR","TIME_SYSTEM":"UTC","ARG_OF_PERICENTER":"285.5919","PERIOD":"96.105","TLE_LINE2":"2 49162  69.9990 126.0100 0003758 285.5919 133.6860 14.98355755  3606","GP_ID":"194646057","ELEMENT_SET_NO":"999","PERIAPSIS":"569.366","MEAN_MOTION":"14.98355755","RCS_SIZE":"LARGE","FILE":"3283711","DECAY_DATE":null,"RA_OF_ASC_NODE":"126.0100","COUNTRY_CODE":"US","OBJECT_NAME":"STARLINK-3082","BSTAR":"-0.00418870000000","EPHEMERIS_TYPE":"0","INCLINATION":"69.9990","CLASSIFICATION_TYPE":"U","SEMIMAJOR_AXIS":"6950.113","NORAD_CAT_ID":"49162","ECCENTRICITY":"0.00037580","APOAPSIS":"574.590","CENTER_NAME":"EARTH","LAUNCH_DATE":"2021-09-14","MEAN_ELEMENT_THEORY":"SGP4","TLE_LINE1":"1 49162U 21082AJ  22025.91667824 -.00049755  00000-0 -41887-2 0  9991","REF_FRAME":"TEME","MEAN_MOTION_DOT":"-0.00049755","OBJECT_TYPE":"PAYLOAD","EPOCH":"2022-01-25T22:00:00.999936","REV_AT_EPOCH":"360"},{"PERIAPSIS":"377.981","ELEMENT_SET_NO":"999","GP_ID":"194645808","FILE":"3283711","RCS_SIZE":"LARGE","MEAN_MOTION":"15.62567485","MEAN_ANOMALY":"268.4447","MEAN_MOTION_DDOT":"0.0000000000000","OBJECT_ID":"2021-082AK","TLE_LINE2":"2 49163  69.9999 110.8324 0003351 274.9311 268.4447 15.62567485  3708","PERIOD":"92.156","ARG_OF_PERICENTER":"274.9311","TIME_SYSTEM":"UTC","SITE":"AFWTR","CENTER_NAME":"EARTH","REV_AT_EPOCH":"370","OBJECT_TYPE":"PAYLOAD","MEAN_MOTION_DOT":"-0.00662626","EPOCH":"2022-01-25T22:00:00.999936","REF_FRAME":"TEME","TLE_LINE1":"1 49163U 21082AK  22025.91667824 -.00662626  00000-0 -80157-2 0  9993","MEAN_ELEMENT_THEORY":"SGP4","LAUNCH_DATE":"2021-09-14","COUNTRY_CODE":"US","RA_OF_ASC_NODE":"110.8324","DECAY_DATE":null,"ECCENTRICITY":"0.00033510","APOAPSIS":"382.510","NORAD_CAT_ID":"49163","SEMIMAJOR_AXIS":"6758.381","CLASSIFICATION_TYPE":"U","BSTAR":"-0.00801570000000","EPHEMERIS_TYPE":"0","INCLINATION":"69.9999","OBJECT_NAME":"STARLINK-3088"},{"PERIOD":"92.145","TLE_LINE2":"2 49164  69.9999 110.8218 0003352 276.1186 281.1939 15.62749332  3707","SITE":"AFWTR","TIME_SYSTEM":"UTC","ARG_OF_PERICENTER":"276.1186","MEAN_MOTION_DDOT":"0.0000000000000","MEAN_ANOMALY":"281.1939","OBJECT_ID":"2021-082AL","FILE":"3283711","MEAN_MOTION":"15.62749332","RCS_SIZE":"LARGE","GP_ID":"194645056","PERIAPSIS":"377.456","ELEMENT_SET_NO":"999","ECCENTRICITY":"0.00033520","APOAPSIS":"381.987","NORAD_CAT_ID":"49164","OBJECT_NAME":"STARLINK-3106","SEMIMAJOR_AXIS":"6757.856","INCLINATION":"69.9999","BSTAR":"-0.00796440000000","EPHEMERIS_TYPE":"0","CLASSIFICATION_TYPE":"U","COUNTRY_CODE":"US","DECAY_DATE":null,"RA_OF_ASC_NODE":"110.8218","REF_FRAME":"TEME","MEAN_ELEMENT_THEORY":"SGP4","TLE_LINE1":"1 49164U 21082AL  22025.91667824 -.00663054  00000-0 -79644-2 0  9999","MEAN_MOTION_DOT":"-0.00663054","OBJECT_TYPE":"PAYLOAD","EPOCH":"2022-01-25T22:00:00.999936","REV_AT_EPOCH":"370","LAUNCH_DATE":"2021-09-14","CENTER_NAME":"EARTH"},{"MEAN_ANOMALY":"174.1863","MEAN_MOTION_DDOT":"0.0000000000000","OBJECT_ID":"2021-082AM","TLE_LINE2":"2 49165  69.9996 126.0063 0003706 270.9010 174.1863 14.98268447  3600","PERIOD":"96.111","TIME_SYSTEM":"UTC","ARG_OF_PERICENTER":"270.9010","SITE":"AFWTR","PERIAPSIS":"569.672","ELEMENT_SET_NO":"999","GP_ID":"194645306","FILE":"3283711","RCS_SIZE":"LARGE","MEAN_MOTION":"14.98268447","COUNTRY_CODE":"US","RA_OF_ASC_NODE":"126.0063","DECAY_DATE":null,"APOAPSIS":"574.824","ECCENTRICITY":"0.00037060","NORAD_CAT_ID":"49165","SEMIMAJOR_AXIS":"6950.383","CLASSIFICATION_TYPE":"U","BSTAR":"0.00830290000000","INCLINATION":"69.9996","EPHEMERIS_TYPE":"0","OBJECT_NAME":"STARLINK-3052","CENTER_NAME":"EARTH","MEAN_MOTION_DOT":"0.00100250","OBJECT_TYPE":"PAYLOAD","REV_AT_EPOCH":"360","EPOCH":"2022-01-25T22:00:00.999936","REF_FRAME":"TEME","MEAN_ELEMENT_THEORY":"SGP4","TLE_LINE1":"1 49165U 21082AM  22025.91667824  .00100250  00000-0  83029-2 0  9994","LAUNCH_DATE":"2021-09-14"},{"MEAN_MOTION_DOT":"-0.00663088","OBJECT_TYPE":"PAYLOAD","EPOCH":"2022-01-25T22:00:00.999936","REV_AT_EPOCH":"370","MEAN_ELEMENT_THEORY":"SGP4","TLE_LINE1":"1 49166U 21082AN  22025.91667824 -.00663088  00000-0 -79696-2 0  9995","REF_FRAME":"TEME","LAUNCH_DATE":"2021-09-14","CENTER_NAME":"EARTH","NORAD_CAT_ID":"49166","APOAPSIS":"382.012","ECCENTRICITY":"0.00033260","BSTAR":"-0.00796960000000","INCLINATION":"69.9999","EPHEMERIS_TYPE":"0","CLASSIFICATION_TYPE":"U","SEMIMAJOR_AXIS":"6757.900","OBJECT_NAME":"STARLINK-3089","COUNTRY_CODE":"US","RA_OF_ASC_NODE":"110.8218","DECAY_DATE":null,"FILE":"3283711","RCS_SIZE":"LARGE","MEAN_MOTION":"15.62734349","ELEMENT_SET_NO":"999","PERIAPSIS":"377.517","GP_ID":"194645558","TLE_LINE2":"2 49166  69.9999 110.8218 0003326 270.6385 284.2781 15.62734349  3701","PERIOD":"92.146","TIME_SYSTEM":"UTC","ARG_OF_PERICENTER":"270.6385","SITE":"AFWTR","MEAN_ANOMALY":"284.2781","MEAN_MOTION_DDOT":"0.0000000000000","OBJECT_ID":"2021-082AN"}];
